IRIDIUM 159             
1 43578U 18061K   25089.82729401  .00000515  00000+0  17670-3 0  9994
2 43578  86.3947 241.9242 0002214  95.7688 264.3761 14.34220153349833
IRIDIUM 180             
1 43922U 19002A   25089.75702760  .00000279  00000+0  92437-4 0  9996
2 43922  86.4043 178.9192 0002209  93.7698 266.3751 14.34215516325438
IRIDIUM 176             
1 43923U 19002B   25089.80564544  .00001732  00000+0  27085-3 0  9990
2 43923  86.6166 178.8987 0002715  83.0336 277.1189 14.72243726334016
IRIDIUM 168             
1 43924U 19002C   25089.68091509  .00000212  00000+0  68519-4 0  9993
2 43924  86.4046 179.0155 0002225  96.9537 263.1912 14.34217466325406
IRIDIUM 173             
1 43925U 19002D   25089.73799362  .00000397  00000+0  13481-3 0  9993
2 43925  86.4045 178.8991 0002181  91.4724 268.6721 14.34213809325393
IRIDIUM 169             
1 43926U 19002E   25089.83421853  .00000744  00000+0  23676-3 0  9995
2 43926  86.4279 210.4232 0002011  53.9971 306.1414 14.38618628326483
IRIDIUM 172             
1 43927U 19002F   25089.80142602  .00000237  00000+0  77411-4 0  9999
2 43927  86.4043 178.8792 0002508  96.7044 263.4437 14.34216816325419
IRIDIUM 175             
1 43928U 19002G   25089.66452597  .00001730  00000+0  27044-3 0  9996
2 43928  86.1499 135.9682 0001307  83.6890 276.4475 14.72246575333988
